HRC MONOBLOCK CAMERA    
1 66052U 98067XR  26075.15968583  .00052922  00000+0  57458-3 0  9995
2 66052  51.6283  32.8603 0003846 123.1630 236.9734 15.62955277 23407
HTV-X1                  
1 66174U 25241A   26073.34423291  .00013614  00000+0  58534-3 0  9996
2 66174  51.6357  50.7100 0005742 187.4106 172.6788 15.22910308 21666
SZ-21 MODULE            
1 66515U 25246C   26074.61177792  .00034609  00000+0  29227-3 0  9997
2 66515  41.4740 166.8918 0000819 310.4718  49.6052 15.69044572 19005
SHENZHOU-22             
1 66645U 25272A   26074.66617283  .00022966  00000+0  26860-3 0  9992
2 66645  41.4669 171.7890 0006367 308.3503  51.6764 15.61005371267526
SOYUZ-MS 28             
1 66664U 25275A   26075.16062931  .00008402  00000+0  16433-3 0  9990
2 66664  51.6332  40.3661 0006342 195.9803 164.0986 15.48306205554529
DUPLEX                  
1 66906U 98067XS  26075.13518510  .00027658  00000+0  38599-3 0  9995
2 66906  51.6293  37.1993 0002811 140.2685 219.8513 15.56663362 16138
ISS OBJECT XT           
1 66907U 98067XT  26075.13741317  .00176705  00000+0  13247-2 0  9999
2 66907  51.6253  32.6935 0004805 122.6394 237.5068 15.71536243 16199
ISS OBJECT XU           
1 66908U 98067XU  26075.13506439  .00177776  00000+0  13246-2 0  9992
2 66908  51.6250  32.6732 0005078 124.7102 235.4375 15.71678088 16197
SILVERSAT               
1 66909U 98067XV  26075.12326910  .00231351  00000+0  14725-2 0  9999
2 66909  51.6239  31.8421 0005539 123.3441 236.8089 15.75185325 16204
ISS OBJECT XW           
1 66910U 98067XW  26075.13541792  .00155698  00000+0  12146-2 0  9993
2 66910  51.6243  32.6723 0005441 125.9546 234.1957 15.70655720 16190
ISS OBJECT XX           
1 66911U 98067XX  26075.10577356  .00324569  00000+0  17064-2 0  9995
2 66911  51.6210  30.9514 0007031 128.3354 231.8280 15.79218631 16205
ISS OBJECT XY           
1 66912U 98067XY  26075.16142514  .00099249  00000+0  98265-3 0  9993
2 66912  51.6272  34.3675 0003520 128.7482 231.3828 15.65032313 16169
