CCSDS_OMM_VERS = 2.0
CREATION_DATE  = 
ORIGINATOR     = 

OBJECT_NAME    = HRC MONOBLOCK CAMERA
OBJECT_ID      = 1998-067XR
CENTER_NAME    = EARTH
REF_FRAME      = TEME
TIME_SYSTEM    = UTC
MEAN_ELEMENT_THEORY = SGP/SGP4

EPOCH          = 2026-03-16T03:49:56.855712
MEAN_MOTION    = 15.62955277
ECCENTRICITY   = .00038468
INCLINATION    = 51.6283
RA_OF_ASC_NODE = 32.8603
ARG_OF_PERICENTER = 123.1630
MEAN_ANOMALY   = 236.9734

EPHEMERIS_TYPE = 0
CLASSIFICATION_TYPE = U
NORAD_CAT_ID   = 66052
ELEMENT_SET_NO = 999
REV_AT_EPOCH   = 2340
BSTAR          = .57457963E-3
MEAN_MOTION_DOT = .52922E-3
MEAN_MOTION_DDOT = 0

CCSDS_OMM_VERS = 2.0
CREATION_DATE  = 
ORIGINATOR     = 

OBJECT_NAME    = HTV-X1
OBJECT_ID      = 2025-241A
CENTER_NAME    = EARTH
REF_FRAME      = TEME
TIME_SYSTEM    = UTC
MEAN_ELEMENT_THEORY = SGP/SGP4

EPOCH          = 2026-03-14T08:15:41.723424
MEAN_MOTION    = 15.22910308
ECCENTRICITY   = .00057421
INCLINATION    = 51.6357
RA_OF_ASC_NODE = 50.7100
ARG_OF_PERICENTER = 187.4106
MEAN_ANOMALY   = 172.6788

EPHEMERIS_TYPE = 0
CLASSIFICATION_TYPE = U
NORAD_CAT_ID   = 66174
ELEMENT_SET_NO = 999
REV_AT_EPOCH   = 2166
BSTAR          = .58534113E-3
MEAN_MOTION_DOT = .13614E-3
MEAN_MOTION_DDOT = 0

CCSDS_OMM_VERS = 2.0
CREATION_DATE  = 
ORIGINATOR     = 

OBJECT_NAME    = SZ-21 MODULE
OBJECT_ID      = 2025-246C
CENTER_NAME    = EARTH
REF_FRAME      = TEME
TIME_SYSTEM    = UTC
MEAN_ELEMENT_THEORY = SGP/SGP4

EPOCH          = 2026-03-15T14:40:57.612288
MEAN_MOTION    = 15.69044572
ECCENTRICITY   = .00008196
INCLINATION    = 41.4740
RA_OF_ASC_NODE = 166.8918
ARG_OF_PERICENTER = 310.4718
MEAN_ANOMALY   = 49.6052

EPHEMERIS_TYPE = 0
CLASSIFICATION_TYPE = U
NORAD_CAT_ID   = 66515
ELEMENT_SET_NO = 999
REV_AT_EPOCH   = 1900
BSTAR          = .29227235E-3
MEAN_MOTION_DOT = .34609E-3
MEAN_MOTION_DDOT = 0

CCSDS_OMM_VERS = 2.0
CREATION_DATE  = 
ORIGINATOR     = 

OBJECT_NAME    = SHENZHOU-22
OBJECT_ID      = 2025-272A
CENTER_NAME    = EARTH
REF_FRAME      = TEME
TIME_SYSTEM    = UTC
MEAN_ELEMENT_THEORY = SGP/SGP4

EPOCH          = 2026-03-15T15:59:17.332512
MEAN_MOTION    = 15.61005371
ECCENTRICITY   = .00063677
INCLINATION    = 41.4669
RA_OF_ASC_NODE = 171.7890
ARG_OF_PERICENTER = 308.3503
MEAN_ANOMALY   = 51.6764

EPHEMERIS_TYPE = 0
CLASSIFICATION_TYPE = U
NORAD_CAT_ID   = 66645
ELEMENT_SET_NO = 999
REV_AT_EPOCH   = 26752
BSTAR          = .26859999E-3
MEAN_MOTION_DOT = .22966E-3
MEAN_MOTION_DDOT = 0

CCSDS_OMM_VERS = 2.0
CREATION_DATE  = 
ORIGINATOR     = 

OBJECT_NAME    = SOYUZ-MS 28
OBJECT_ID      = 2025-275A
CENTER_NAME    = EARTH
REF_FRAME      = TEME
TIME_SYSTEM    = UTC
MEAN_ELEMENT_THEORY = SGP/SGP4

EPOCH          = 2026-03-16T03:51:18.372384
MEAN_MOTION    = 15.48306205
ECCENTRICITY   = .00063428
INCLINATION    = 51.6332
RA_OF_ASC_NODE = 40.3661
ARG_OF_PERICENTER = 195.9803
MEAN_ANOMALY   = 164.0986

EPHEMERIS_TYPE = 0
CLASSIFICATION_TYPE = U
NORAD_CAT_ID   = 66664
ELEMENT_SET_NO = 999
REV_AT_EPOCH   = 55452
BSTAR          = .16433499E-3
MEAN_MOTION_DOT = .8402E-4
MEAN_MOTION_DDOT = 0

CCSDS_OMM_VERS = 2.0
CREATION_DATE  = 
ORIGINATOR     = 

OBJECT_NAME    = DUPLEX
OBJECT_ID      = 1998-067XS
CENTER_NAME    = EARTH
REF_FRAME      = TEME
TIME_SYSTEM    = UTC
MEAN_ELEMENT_THEORY = SGP/SGP4

EPOCH          = 2026-03-16T03:14:39.992640
MEAN_MOTION    = 15.56663362
ECCENTRICITY   = .00028117
INCLINATION    = 51.6293
RA_OF_ASC_NODE = 37.1993
ARG_OF_PERICENTER = 140.2685
MEAN_ANOMALY   = 219.8513

EPHEMERIS_TYPE = 0
CLASSIFICATION_TYPE = U
NORAD_CAT_ID   = 66906
ELEMENT_SET_NO = 999
REV_AT_EPOCH   = 1613
BSTAR          = .38599321E-3
MEAN_MOTION_DOT = .27658E-3
MEAN_MOTION_DDOT = 0

CCSDS_OMM_VERS = 2.0
CREATION_DATE  = 
ORIGINATOR     = 

OBJECT_NAME    = ISS OBJECT XT
OBJECT_ID      = 1998-067XT
CENTER_NAME    = EARTH
REF_FRAME      = TEME
TIME_SYSTEM    = UTC
MEAN_ELEMENT_THEORY = SGP/SGP4

EPOCH          = 2026-03-16T03:17:52.497888
MEAN_MOTION    = 15.71536243
ECCENTRICITY   = .00048051
INCLINATION    = 51.6253
RA_OF_ASC_NODE = 32.6935
ARG_OF_PERICENTER = 122.6394
MEAN_ANOMALY   = 237.5068

EPHEMERIS_TYPE = 0
CLASSIFICATION_TYPE = U
NORAD_CAT_ID   = 66907
ELEMENT_SET_NO = 999
REV_AT_EPOCH   = 1619
BSTAR          = .13247427E-2
MEAN_MOTION_DOT = .176705E-2
MEAN_MOTION_DDOT = 0

CCSDS_OMM_VERS = 2.0
CREATION_DATE  = 
ORIGINATOR     = 

OBJECT_NAME    = ISS OBJECT XU
OBJECT_ID      = 1998-067XU
CENTER_NAME    = EARTH
REF_FRAME      = TEME
TIME_SYSTEM    = UTC
MEAN_ELEMENT_THEORY = SGP/SGP4

EPOCH          = 2026-03-16T03:14:29.563296
MEAN_MOTION    = 15.71678088
ECCENTRICITY   = .00050782
INCLINATION    = 51.6250
RA_OF_ASC_NODE = 32.6732
ARG_OF_PERICENTER = 124.7102
MEAN_ANOMALY   = 235.4375

EPHEMERIS_TYPE = 0
CLASSIFICATION_TYPE = U
NORAD_CAT_ID   = 66908
ELEMENT_SET_NO = 999
REV_AT_EPOCH   = 1619
BSTAR          = .13245513E-2
MEAN_MOTION_DOT = .177776E-2
MEAN_MOTION_DDOT = 0

CCSDS_OMM_VERS = 2.0
CREATION_DATE  = 
ORIGINATOR     = 

OBJECT_NAME    = SILVERSAT
OBJECT_ID      = 1998-067XV
CENTER_NAME    = EARTH
REF_FRAME      = TEME
TIME_SYSTEM    = UTC
MEAN_ELEMENT_THEORY = SGP/SGP4

EPOCH          = 2026-03-16T02:57:30.450240
MEAN_MOTION    = 15.75185325
ECCENTRICITY   = .00055394
INCLINATION    = 51.6239
RA_OF_ASC_NODE = 31.8421
ARG_OF_PERICENTER = 123.3441
MEAN_ANOMALY   = 236.8089

EPHEMERIS_TYPE = 0
CLASSIFICATION_TYPE = U
NORAD_CAT_ID   = 66909
ELEMENT_SET_NO = 999
REV_AT_EPOCH   = 1620
BSTAR          = .14725351E-2
MEAN_MOTION_DOT = .231351E-2
MEAN_MOTION_DDOT = 0

CCSDS_OMM_VERS = 2.0
CREATION_DATE  = 
ORIGINATOR     = 

OBJECT_NAME    = ISS OBJECT XW
OBJECT_ID      = 1998-067XW
CENTER_NAME    = EARTH
REF_FRAME      = TEME
TIME_SYSTEM    = UTC
MEAN_ELEMENT_THEORY = SGP/SGP4

EPOCH          = 2026-03-16T03:15:00.108288
MEAN_MOTION    = 15.70655720
ECCENTRICITY   = .00054413
INCLINATION    = 51.6243
RA_OF_ASC_NODE = 32.6723
ARG_OF_PERICENTER = 125.9546
MEAN_ANOMALY   = 234.1957

EPHEMERIS_TYPE = 0
CLASSIFICATION_TYPE = U
NORAD_CAT_ID   = 66910
ELEMENT_SET_NO = 999
REV_AT_EPOCH   = 1619
BSTAR          = .12145651E-2
MEAN_MOTION_DOT = .155698E-2
MEAN_MOTION_DDOT = 0

CCSDS_OMM_VERS = 2.0
CREATION_DATE  = 
ORIGINATOR     = 

OBJECT_NAME    = ISS OBJECT XX
OBJECT_ID      = 1998-067XX
CENTER_NAME    = EARTH
REF_FRAME      = TEME
TIME_SYSTEM    = UTC
MEAN_ELEMENT_THEORY = SGP/SGP4

EPOCH          = 2026-03-16T02:32:18.835584
MEAN_MOTION    = 15.79218631
ECCENTRICITY   = .0007031
INCLINATION    = 51.6210
RA_OF_ASC_NODE = 30.9514
ARG_OF_PERICENTER = 128.3354
MEAN_ANOMALY   = 231.8280

EPHEMERIS_TYPE = 0
CLASSIFICATION_TYPE = U
NORAD_CAT_ID   = 66911
ELEMENT_SET_NO = 999
REV_AT_EPOCH   = 1620
BSTAR          = .17063906E-2
MEAN_MOTION_DOT = .324569E-2
MEAN_MOTION_DDOT = 0

CCSDS_OMM_VERS = 2.0
CREATION_DATE  = 
ORIGINATOR     = 

OBJECT_NAME    = ISS OBJECT XY
OBJECT_ID      = 1998-067XY
CENTER_NAME    = EARTH
REF_FRAME      = TEME
TIME_SYSTEM    = UTC
MEAN_ELEMENT_THEORY = SGP/SGP4

EPOCH          = 2026-03-16T03:52:27.132096
MEAN_MOTION    = 15.65032313
ECCENTRICITY   = .00035205
INCLINATION    = 51.6272
RA_OF_ASC_NODE = 34.3675
ARG_OF_PERICENTER = 128.7482
MEAN_ANOMALY   = 231.3828

EPHEMERIS_TYPE = 0
CLASSIFICATION_TYPE = U
NORAD_CAT_ID   = 66912
ELEMENT_SET_NO = 999
REV_AT_EPOCH   = 1616
BSTAR          = .98264604E-3
MEAN_MOTION_DOT = .99249E-3
MEAN_MOTION_DDOT = 0

